0 SCOUT X-1 DEB
1 00085U 61004C   13285.78317052  .00005898  00000-0  15089-2 0  8631
2 00085 038.7708 098.9703 0486730 251.7931 102.9252 13.97451425585617
0 SCOUT X-1 DEB
1 00085U 61004C   13287.49833153  .00007269  00000-0  18538-2 0  8643
2 00085 038.7710 090.5352 0486712 262.7689 091.7494 13.97475230585859
0 SCOUT X-1 DEB
1 00085U 61004C   13288.49884536  .00010710  00000-0  27203-2 0  8650
2 00085 038.7714 085.6164 0486648 269.1669 085.3302 13.97498604585998
0 SCOUT X-1 DEB
1 00085U 61004C   13290.49986827  .00011585  00000-0  29412-2 0  8665
2 00085 038.7715 075.7761 0486404 281.9850 072.6783 13.97536909586271
0 SCOUT X-1 DEB
1 00085U 61004C   13292.71528527  .00009730  00000-0  24748-2 0  8678
2 00085 038.7726 064.8827 0486160 296.1823 058.9702 13.97577608586585
0 SCOUT X-1 DEB
1 00085U 61004C   13295.43094866  .00012618  00000-0  32059-2 0  8688
2 00085 038.7719 051.5265 0485648 313.5883 042.5503 13.97626140586962
